$$SOE
2461295.500000000, A.D. 2026-Sep-12 00:00:00.0000, 1.031163856986049E+08, 5.291704485959619E+08, -1.081782747787914E+07,
2461302.500000000, A.D. 2026-Sep-19 00:00:00.0000, 9.430669343198028E+07, 5.299763672743746E+08, -1.079746234547514E+07,
2461309.500000000, A.D. 2026-Sep-26 00:00:00.0000, 8.546758277213052E+07, 5.306174129577324E+08, -1.077373518080878E+07,
2461316.500000000, A.D. 2026-Oct-03 00:00:00.0000, 7.660167507791673E+07, 5.310926036588103E+08, -1.074663736411223E+07,
2461323.500000000, A.D. 2026-Oct-10 00:00:00.0000, 6.771162270530947E+07, 5.314009809696892E+08, -1.071616089667439E+07,
2461330.500000000, A.D. 2026-Oct-17 00:00:00.0000, 5.880010952234229E+07, 5.315416108127165E+08, -1.068229841101947E+07,
2461337.500000000, A.D. 2026-Oct-24 00:00:00.0000, 4.986985141346175E+07, 5.315135841350187E+08, -1.064504318948591E+07,
2461344.500000000, A.D. 2026-Oct-31 00:00:00.0000, 4.092359687102740E+07, 5.313160174813294E+08, -1.060438920561451E+07,
2461351.500000000, A.D. 2026-Nov-07 00:00:00.0000, 3.196412801193984E+07, 5.309480535208509E+08, -1.056033121326250E+07,
2461358.500000000, A.D. 2026-Nov-14 00:00:00.0000, 2.299426221939092E+07, 5.304088624175966E+08, -1.051286482923952E+07,
2461365.500000000, A.D. 2026-Nov-21 00:00:00.0000, 1.401685259788670E+07, 5.296976447277672E+08, -1.046198638749966E+07,
2461372.500000000, A.D. 2026-Nov-28 00:00:00.0000, 5.034786243159094E+06, 5.288136328155757E+08, -1.040769271888036E+07,
2461379.500000000, A.D. 2026-Dec-05 00:00:00.0000, -3.949016055588382E+06, 5.277560901310176E+08, -1.034998124152750E+07,
2461386.500000000, A.D. 2026-Dec-12 00:00:00.0000, -1.293159851782642E+07, 5.265243114622924E+08, -1.028885012266415E+07,
2461393.500000000, A.D. 2026-Dec-19 00:00:00.0000, -2.190996936678162E+07, 5.251176241699690E+08, -1.022429833784252E+07,
2461400.500000000, A.D. 2026-Dec-26 00:00:00.0000, -3.088110026211571E+07, 5.235353895353205E+08, -1.015632568524435E+07,
2461407.500000000, A.D. 2027-Jan-02 00:00:00.0000, -3.984192589709783E+07, 5.217770040332825E+08, -1.008493279572564E+07,
2461414.500000000, A.D. 2027-Jan-09 00:00:00.0000, -4.878934364612710E+07, 5.198419005520156E+08, -1.001012114760470E+07,
2461421.500000000, A.D. 2027-Jan-16 00:00:00.0000, -5.772021323029411E+07, 5.177295495696316E+08, -9.931893088717341E+06,
2461428.500000000, A.D. 2027-Jan-23 00:00:00.0000, -6.663135635839599E+07, 5.154394602499381E+08, -9.850251873245358E+06,
2461435.500000000, A.D. 2027-Jan-30 00:00:00.0000, -7.551955615947698E+07, 5.129711814107401E+08, -9.765201734517008E+06,
2461442.500000000, A.D. 2027-Feb-06 00:00:00.0000, -8.438155598631504E+07, 5.103243027061359E+08, -9.676748005068064E+06,
2461449.500000000, A.D. 2027-Feb-13 00:00:00.0000, -9.321405805434018E+07, 5.074984572444695E+08, -9.584897142288536E+06,
2461456.500000000, A.D. 2027-Feb-20 00:00:00.0000, -1.020137242829834E+08, 5.044933248526653E+08, -9.489656507793218E+06,
2461463.500000000, A.D. 2027-Feb-27 00:00:00.0000, -1.107771779465603E+08, 5.013086327727474E+08, -9.391034291226506E+06,
2461470.500000000, A.D. 2027-Mar-06 00:00:00.0000, -1.195010031213404E+08, 4.979441557136904E+08, -9.289039698248625E+06,
2461477.500000000, A.D. 2027-Mar-13 00:00:00.0000, -1.281817435328418E+08, 4.943997173106815E+08, -9.183683088802427E+06,
2461484.500000000, A.D. 2027-Mar-20 00:00:00.0000, -1.368159019355670E+08, 4.906751921584159E+08, -9.074976030537307E+06,
2461491.500000000, A.D. 2027-Mar-27 00:00:00.0000, -1.453999398265139E+08, 4.867705078699327E+08, -8.962931330877662E+06,
2461498.500000000, A.D. 2027-Apr-03 00:00:00.0000, -1.539302772933662E+08, 4.826856471138644E+08, -8.847563070322335E+06,
2461505.500000000, A.D. 2027-Apr-10 00:00:00.0000, -1.624032929401313E+08, 4.784206496538785E+08, -8.728886640767515E+06,
2461512.500000000, A.D. 2027-Apr-17 00:00:00.0000, -1.708153238723278E+08, 4.739756143766538E+08, -8.606918792084366E+06,
2461519.500000000, A.D. 2027-Apr-24 00:00:00.0000, -1.791626656668770E+08, 4.693507012467347E+08, -8.481677699303240E+06,
2461526.500000000, A.D. 2027-May-01 00:00:00.0000, -1.874415720317118E+08, 4.645461332163777E+08, -8.353183075588673E+06,
2461533.500000000, A.D. 2027-May-08 00:00:00.0000, -1.956482538528495E+08, 4.595621988391141E+08, -8.221456298008084E+06,
2461540.500000000, A.D. 2027-May-15 00:00:00.0000, -2.037788791312847E+08, 4.543992565414736E+08, -8.086520330954552E+06,
2461547.500000000, A.D. 2027-May-22 00:00:00.0000, -2.118295753779288E+08, 4.490577379618089E+08, -7.948399515627027E+06,
2461554.500000000, A.D. 2027-May-29 00:00:00.0000, -2.197964311152033E+08, 4.435381488857664E+08, -7.807119653027326E+06,
2461561.500000000, A.D. 2027-Jun-05 00:00:00.0000, -2.276754956075888E+08, 4.378410709090163E+08, -7.662708205470175E+06,
2461568.500000000, A.D. 2027-Jun-12 00:00:00.0000, -2.354627788353558E+08, 4.319671642598088E+08, -7.515194397238374E+06,
2461575.500000000, A.D. 2027-Jun-19 00:00:00.0000, -2.431542520482587E+08, 4.259171708457152E+08, -7.364609260301769E+06,
2461582.500000000, A.D. 2027-Jun-26 00:00:00.0000, -2.507458486260728E+08, 4.196919172615978E+08, -7.210985671815395E+06,
2461589.500000000, A.D. 2027-Jul-03 00:00:00.0000, -2.582334651207136E+08, 4.132923177653296E+08, -7.054358394553542E+06,
2461596.500000000, A.D. 2027-Jul-10 00:00:00.0000, -2.656129624502228E+08, 4.067193772281252E+08, -6.894764122667491E+06,
2461603.500000000, A.D. 2027-Jul-17 00:00:00.0000, -2.728801672154501E+08, 3.999741940185025E+08, -6.732241538989604E+06,
2461610.500000000, A.D. 2027-Jul-24 00:00:00.0000, -2.800308729900228E+08, 3.930579627544923E+08, -6.566831403069079E+06,
2461617.500000000, A.D. 2027-Jul-31 00:00:00.0000, -2.870608411789435E+08, 3.859719771561748E+08, -6.398576688105255E+06,
2461624.500000000, A.D. 2027-Aug-07 00:00:00.0000, -2.939658016535104E+08, 3.787176341458776E+08, -6.227522653929949E+06,
2461631.500000000, A.D. 2027-Aug-14 00:00:00.0000, -3.007414554711539E+08, 3.712964389380854E+08, -6.053716665495232E+06,
2461638.500000000, A.D. 2027-Aug-21 00:00:00.0000, -3.073834790684375E+08, 3.637100077489734E+08, -5.877208088226482E+06,
2461645.500000000, A.D. 2027-Aug-28 00:00:00.0000, -3.138875265033791E+08, 3.559600693198019E+08, -5.698048476083696E+06,
2461652.500000000, A.D. 2027-Sep-04 00:00:00.0000, -3.202492309391743E+08, 3.480484677490813E+08, -5.516291739447922E+06,
2461659.500000000, A.D. 2027-Sep-11 00:00:00.0000, -3.264642067751607E+08, 3.399771659674371E+08, -5.331994219243929E+06,
2461666.500000000, A.D. 2027-Sep-18 00:00:00.0000, -3.325280523002106E+08, 3.317482491991850E+08, -5.145214732877716E+06,
2461673.500000000, A.D. 2027-Sep-25 00:00:00.0000, -3.384363526473129E+08, 3.233639283254232E+08, -4.956014619432330E+06,
2461680.500000000, A.D. 2027-Oct-02 00:00:00.0000, -3.441846829817219E+08, 3.148265431673436E+08, -4.764457788807139E+06,
2461687.500000000, A.D. 2027-Oct-09 00:00:00.0000, -3.497686119074991E+08, 3.061385656752430E+08, -4.570610777227283E+06,
2461694.500000000, A.D. 2027-Oct-16 00:00:00.0000, -3.551837050364086E+08, 2.973026029572814E+08, -4.374542819339171E+06,
2461701.500000000, A.D. 2027-Oct-23 00:00:00.0000, -3.604255284661649E+08, 2.883214001301532E+08, -4.176325961063281E+06,
2461708.500000000, A.D. 2027-Oct-30 00:00:00.0000, -3.654896517999667E+08, 2.791978435886748E+08, -3.976035197492465E+06,
2461715.500000000, A.D. 2027-Nov-06 00:00:00.0000, -3.703716518778068E+08, 2.699349658082168E+08, -3.773748436747506E+06,
2461722.500000000, A.D. 2027-Nov-13 00:00:00.0000, -3.750671192123406E+08, 2.605359495899238E+08, -3.569546277286813E+06,
2461729.500000000, A.D. 2027-Nov-20 00:00:00.0000, -3.795716642318148E+08, 2.510041295481203E+08, -3.363512043097228E+06,
2461736.500000000, A.D. 2027-Nov-27 00:00:00.0000, -3.838809217150580E+08, 2.413429937856517E+08, -3.155731982151687E+06,
2461743.500000000, A.D. 2027-Dec-04 00:00:00.0000, -3.879905554472184E+08, 2.315561866517925E+08, -2.946295367459491E+06,
2461750.500000000, A.D. 2027-Dec-11 00:00:00.0000, -3.918962636514204E+08, 2.216475116007797E+08, -2.735294528738931E+06,
2461757.500000000, A.D. 2027-Dec-18 00:00:00.0000, -3.955937849234002E+08, 2.116209337927286E+08, -2.522824867177039E+06,
2461764.500000000, A.D. 2027-Dec-25 00:00:00.0000, -3.990789045177346E+08, 2.014805824139554E+08, -2.308984866825297E+06,
2461771.500000000, A.D. 2028-Jan-01 00:00:00.0000, -4.023474609438435E+08, 1.912307527094369E+08, -2.093876104654461E+06,
$$EOE